STARLINK-1728_new
1 16582C 20070BC  21326.14846885  .00001824  00000-0  12217-3 0  3267
2 16582  53.0550 358.0172 0001895  58.3513 219.5878 15.06397668    11
STARLINK-1728_old
1 26582C 20070BC  21325.17289900 -.00017262  00000-0 -11562-2 0  3253
2 26582  53.0548   2.3970 0001920  60.6058 323.8179 15.06427315    18
